#cP2024  2  7  0  0  0.00000000     577 d+D   IGS20 EXT AIUB
## 2300 259200.00000000   300.00000000 60347 0.0000000000000
+   78   G01G02G03G04G05G06G07G08G09G10G11G12G13G14G15G16G17
+        G18G19G20G21G22G23G24G25G26G27G28G29G30G31G32R01R02
+        R03R04R05R07R08R09R11R12R13R14R15R16R17R18R19R20R21
+        R22R24E02E03E04E05E07E08E09E10E11E12E13E14E15E18E19
+        E21E24E25E26E27E30E31E33E34E36  0  0  0  0  0  0  0
++         6  7  6  6  7  6  7  6  5  6  7  7  7  6  7  7  7
++         7  7  7  7  7  6  6  5  6  6  6  8  6  7  6  9  7
++         8  8  8  8  8  7  6  6  7  7  6  7  8  7  9 10  8
++         8  7  6  6  6  6  7  7  8  8  7  7  7  7  6  7  7
++         5  6  6  7  6  6  6  7  7  6  0  0  0  0  0  0  0
%c M  cc GPS ccc cccc cccc cccc cccc ccccc ccccc ccccc ccccc
%c cc cc ccc ccc cccc cccc cccc cccc ccccc ccccc ccccc ccccc
%f  1.2500000  1.025000000  0.00000000000  0.000000000000000
%f  0.0000000  0.000000000  0.00000000000  0.000000000000000
%i    0    0    0    0      0      0      0      0         0
%i    0    0    0    0      0      0      0      0         0
/* Center for Orbit Determination in Europe (CODE)          
/* Ultra-rapid GRE orbits starting year-day 24038 00 hour   
/* Observed/predicted: 24/24 hours (data used up to 038X)   
/* PCV:IGS20      OL/AL:FES2014b NONE     YN ORB:CoN CLK:BRD
*  2024  2  8 20 25  0.00000000
PG01  12100.134213 -19613.529256  12571.028352    168.798552               P   P
PG02  14142.161715 -12718.301932  18933.490021   -488.464343               P   P
PG03  23017.613929 -12154.668727  -5106.212000    180.613091               P   P
PG04  14651.807807  -6606.511549 -21152.730614    286.847482               P   P
PG05 -25063.621222   5173.291148  -7447.973945   -161.069970               P   P
PG06  -7021.236546 -19952.553487 -15923.481810    414.629527               P   P
PG07   5040.651161 -25770.314143   -955.733256    -57.271300               P   P
PG08  20552.862259    744.993004  16941.305168   -166.078206               P   P
PG09   2275.585644 -16655.536827 -20632.863747     85.683047               P   P
PG10   6135.647973  13542.259953  22221.787564    -72.547294               P   P
PG11 -13058.722556  -9071.403459 -21257.126228   -569.138093               P   P
PG12 -23856.540360  10627.699459  -4912.969807   -476.059584               P   P
PG13 -21064.184635 -11164.406309  11736.714917    623.720122               P   P
PG14  -1737.616411 -15689.797071  21365.533916    320.599316               P   P
PG15 -20643.805184   1596.393812  16258.774746    125.692493               P   P
PG16  23777.116467   2387.535832 -12401.676777   -366.891010               P   P
PG17  -9236.572730 -21169.416483  13402.382710    717.592882               P   P
PG18  -4989.050898  25983.508282   -207.509702   -551.238962               P   P
PG19 -16370.567419 -20722.908496   4100.517822    437.964224               P   P
PG20 -19139.609578  -3560.422035 -17932.814143    388.233395               P   P
PG21  15233.949737  -6319.906778  21094.199746    135.623653               P   P
PG22  -9476.184863 -12982.485870  21529.744834     34.438306               P   P
PG23  -7650.737553  16904.183322  18952.575449    152.082252               P   P
PG24 -14696.641259  10776.128079  18772.994569   -428.460689               P   P
PG25 -15682.945202  16610.942500 -13653.413557    487.986822               P   P
PG26  16646.376323   8114.424788 -19307.851387    192.258100               P   P
PG27  22712.787838  12079.462157   7183.115837     -2.290619               P   P
PG28   6575.992798  21924.479708 -13497.477529   -124.597704               P   P
PG29  -4968.825161  15243.273113 -21205.876556   -607.333725               P   P
PG30  -2386.736303 -24824.596992   8864.741365   -435.099383               P   P
PG31  11575.016301  13708.438021 -19663.076786   -227.700313               P   P
PG32  13556.548885  20472.849474  10586.484498   -610.531330               P   P
PR01 -24206.030124  -3182.002464   7414.614774     76.652389               P   P
PR02 -13662.095130   5762.905013  20784.245854    -22.463264               P   P
PR03   4508.566947  12231.029020  21987.877281     94.211179               P   P
PR04  19641.788643  11815.914725  11242.283374    222.621826               P   P
PR05  24346.505040   5219.886501  -5586.827601    126.619114               P   P
PR07  -5348.603064 -12324.507099 -21627.377322     75.336209               P   P
PR08 -19884.611094 -11607.259835 -10876.746146    -74.400572               P   P
PR09  17966.732050 -18037.838614    602.409932    168.883690               P   P
PR11  -6339.810761  -9048.849353  22994.494487     35.012285               P   P
PR12 -18630.988965   6852.782723  16024.404521     36.532622               P   P
PR13 -18991.174494  16927.772739   1792.003140    -44.180101               P   P
PR14  -7518.208192  18073.560668 -16360.780842     26.023248               P   P
PR15   7572.273937   8071.950478 -22970.545286     82.384706               P   P
PR16  18413.795547  -6801.597483 -16269.114657     23.120685               P   P
PR17   3065.499494  24802.744991  -5013.718924     59.607092               P   P
PR18   9534.820472  20771.709077  11404.739514    126.425542               P   P
PR19  11132.119697   8092.480051  21480.802546   -265.062334               P   P
PR20   6602.814455 -14262.251886  20086.770564   -107.987110               P   P
PR21  -3029.347455 -24891.314543   4739.639750    -75.412908               P   P
PR22  -9438.205669 -20294.152249 -12191.525426    107.149705               P   P
PR24  -6134.639484  15163.296288 -19550.293178    -43.144329               P   P
PE02  16424.499795  10540.014954 -22273.806231    101.784804               P   P
PE03  21526.836162  20199.151463   2124.192925    -92.539264               P   P
PE04 -24291.962738  -6171.953618  15754.794889   -322.752859               P   P
PE05   6250.739237  22247.512408  18502.821130   4718.186285               P   P
PE07  13135.418635 -10973.801255 -24143.282132   -102.758982               P   P
PE08  24399.942879   6842.443840 -15290.344540   -220.842813               P   P
PE09 -13158.015223  10764.902160  24235.211578   -329.090324               P   P
PE10 -16179.066617  12694.285225 -21291.405759   -600.468112               P   P
PE11 -13317.601989  22435.039090 -14004.954195   3256.844575               P   P
PE12 -16484.273871   2111.819353 -24494.532708   -897.970833               P   P
PE13  13520.724957 -21904.224424  14611.411513    -20.129847               P   P
PE14 -21112.825520   6154.073805 -22316.734751 999999.999999               P   P
PE15  16347.225511  -1457.494656  24642.805799    -84.727030               P   P
PE18   6542.980478 -16121.629327  19150.694203 999999.999999               P   P
PE19 -20215.875813 -21188.661935  -4278.331547   -652.576777               P   P
PE21   3991.352041 -18229.680527  22969.132887   -578.032236               P   P
PE24 -23211.716184  15424.934392  -9955.837557   -587.474752               P   P
PE25  -4409.799788  18291.028702 -22851.474971      0.659543               P   P
PE26   2408.667366 -29167.783657  -4400.291526    363.129834               P   P
PE27  22947.728161 -15627.851546  10279.218460   -269.849594               P   P
PE30  28134.455515  -3558.045907  -8535.028399   -891.177582               P   P
PE31 -28141.806271   3845.987164   8312.896848    -15.554561               P   P
PE33  -9244.829063 -20010.496159 -19747.005440      7.291344               P   P
PE34   9594.772571  19509.399285  20087.185420    -93.556510               P   P
PE36  -2832.337568  29226.215730   3809.614463   -183.220028               P   P
EOF
